{
  "type": "FeatureCollection",
  "properties": {
    "description": "Manually curated seed list of known industrial heat sources in Italy that trigger false-positive fire hotspot detections (VIIRS/MODIS). Coordinates marked verified:true were corrected against the centroid of real hotspot clusters observed in the last 7 days of live data (2026-07-31); verified:false entries are geographic estimates not yet confirmed against detections and may need correcting once data accumulates near them. buffer_m compensates for residual uncertainty.",
    "buffer_default_m": 1500
  },
  "features": [
    { "type": "Feature", "properties": { "name": "ILVA Taranto", "kind": "steel_plant", "buffer_m": 2000, "verified": true }, "geometry": { "type": "Point", "coordinates": [17.212, 40.511] } },
    { "type": "Feature", "properties": { "name": "Raffineria Priolo-Melilli (ISAB)", "kind": "refinery", "buffer_m": 2000, "verified": true }, "geometry": { "type": "Point", "coordinates": [15.169, 37.146] } },
    { "type": "Feature", "properties": { "name": "Raffineria Gela", "kind": "refinery", "buffer_m": 1500, "verified": false }, "geometry": { "type": "Point", "coordinates": [14.270, 37.070] } },
    { "type": "Feature", "properties": { "name": "Raffineria Sarroch (Saras)", "kind": "refinery", "buffer_m": 2000, "verified": true }, "geometry": { "type": "Point", "coordinates": [9.018, 39.082] } },
    { "type": "Feature", "properties": { "name": "Raffineria Falconara Marittima", "kind": "refinery", "buffer_m": 1500, "verified": false }, "geometry": { "type": "Point", "coordinates": [13.370, 43.630] } },
    { "type": "Feature", "properties": { "name": "Centrale Enel Federico II, Brindisi", "kind": "power_plant", "buffer_m": 2000, "verified": true }, "geometry": { "type": "Point", "coordinates": [17.982, 40.622] } },
    { "type": "Feature", "properties": { "name": "Centrale Torrevaldaliga Nord, Civitavecchia", "kind": "power_plant", "buffer_m": 1500, "verified": false }, "geometry": { "type": "Point", "coordinates": [11.780, 42.050] } },
    { "type": "Feature", "properties": { "name": "Petrolchimico Porto Marghera", "kind": "petrochemical", "buffer_m": 1500, "verified": false }, "geometry": { "type": "Point", "coordinates": [12.240, 45.430] } },
    { "type": "Feature", "properties": { "name": "Ex Ilva/Lucchini Piombino", "kind": "steel_plant", "buffer_m": 1500, "verified": false }, "geometry": { "type": "Point", "coordinates": [10.530, 42.930] } },
    { "type": "Feature", "properties": { "name": "Raffineria Livorno (Eni)", "kind": "refinery", "buffer_m": 1500, "verified": false }, "geometry": { "type": "Point", "coordinates": [10.350, 43.550] } },
    { "type": "Feature", "properties": { "name": "Acciaierie di Terni", "kind": "steel_plant", "buffer_m": 2000, "verified": true }, "geometry": { "type": "Point", "coordinates": [12.669, 42.566] } },
    { "type": "Feature", "properties": { "name": "Termovalorizzatore A2A Brescia", "kind": "waste_incinerator", "buffer_m": 2000, "verified": true }, "geometry": { "type": "Point", "coordinates": [10.222, 45.497] } }
  ]
}
